GLOBALSTAR M067 [+]     
1 32263U 07048A   23314.70257189 -.00000071  00000+0  19600-3 0  9994
2 32263  51.9735 306.1235 0000735 148.7955  22.5755 12.40634165736938
GLOBALSTAR M070 [+]     
1 32264U 07048B   23314.68330693 -.00000073  00000+0  17143-3 0  9996
2 32264  51.9729 109.0784 0000618 122.0692 251.9206 12.62281896739850
GLOBALSTAR M066 [+]     
1 32265U 07048C   23314.83435330 -.00000066  00000+0  21023-3 0  9992
2 32265  51.9693 330.6746 0000651  59.1420 113.5405 12.62275978742130
GLOBALSTAR M068 [-]     
1 32266U 07048D   23315.10266853 -.00000068  00000+0  20099-3 0  9990
2 32266  51.9890 282.6591 0000726 332.0155 108.3264 12.62770864744057
GLOBALSTAR M079 [+]     
1 37188U 10054A   23314.78873056 -.00000085  00000+0  10344-3 0  9992
2 37188  52.0016 118.7878 0001155  99.9753 274.4634 12.62269846602652
GLOBALSTAR M074 [+]     
1 37189U 10054B   23314.73548329 -.00000090  00000+0  76614-4 0  9999
2 37189  51.9992 118.3620 0000946 103.3155 269.5939 12.62271916603259
GLOBALSTAR M076 [+]     
1 37190U 10054C   23314.76218870 -.00000075  00000+0  15825-3 0  9998
2 37190  52.0006 118.4002 0001366 120.3739 252.9915 12.62263743602975
GLOBALSTAR M077 [+]     
1 37191U 10054D   23314.59065453 -.00000098  00000+0  31492-4 0  9991
2 37191  52.0069  75.6097 0000733 116.8764 255.8646 12.62266368603327
